{
  "type": "FeatureCollection",
  "features": [
    {
      "type": "Feature",
      "properties": {
        "id": "fence-1",
        "role": "allowed_area",
        "synthetic": true
      },
      "geometry": {
        "type": "Polygon",
        "coordinates": [
          [
            [
              -47.65092506,
              -22.70071865
            ],
            [
              -47.64907494,
              -22.70071865
            ],
            [
              -47.64907494,
              -22.69928135
            ],
            [
              -47.65092506,
              -22.69928135
            ],
            [
              -47.65092506,
              -22.70071865
            ]
          ]
        ]
      }
    },
    {
      "type": "Feature",
      "properties": {
        "id": "water-1",
        "role": "water",
        "synthetic": true
      },
      "geometry": {
        "type": "Polygon",
        "coordinates": [
          [
            [
              -47.64892888,
              -22.70040424
            ],
            [
              -47.64853939,
              -22.70040424
            ],
            [
              -47.64853939,
              -22.69959576
            ],
            [
              -47.64892888,
              -22.69959576
            ],
            [
              -47.64892888,
              -22.70040424
            ]
          ]
        ]
      }
    }
  ]
}
